NORAD_CAT_ID,OBJECT_NAME,OBJECT_TYPE,EPOCH,MEAN_MOTION,ECCENTRICITY,INCLINATION,RA_OF_ASC_NODE,ARG_OF_PERICENTER,MEAN_ANOMALY,BSTAR,MEAN_MOTION_DOT,MEAN_MOTION_DDOT,TLE_LINE0,TLE_LINE1,TLE_LINE2,SEMIMAJOR_AXIS,PERIOD,APOGEE,PERIGEE,DECAYED
56461.0,STARLINK-6037,PAYLOAD,2023-06-20 22:00:00,15.49643732,0.0003321,70.0004,130.1273,267.2957,130.2248,-0.019059,-0.00969668,0.0,0 STARLINK-6037,1 56461U 23064P   23171.91667824 -.00969668  00000-0 -19059-1 0  9995,2 56461  70.0004 130.1273 0003321 267.2957 130.2248 15.49643732  1307,6795.904,92.925,420.026,415.513,0.0
56461.0,STARLINK-6037,PAYLOAD,2023-06-21 14:00:01,15.4828825,0.0003158,70.0001,128.3107,271.649,242.2658,-0.018451,-0.00888632,0.0,0 STARLINK-6037,1 56461U 23064P   23172.58334491 -.00888632  00000-0 -18451-1 0  9996,2 56461  70.0001 128.3107 0003158 271.6490 242.2658 15.48288250  6930,6799.87,93.006,423.883,419.588,0.0
56461.0,STARLINK-6037,PAYLOAD,2023-06-21 22:00:01,15.47681162,0.0003177,70.0006,127.404,266.0693,304.9059,-0.020217,-0.0096076,0.0,0 STARLINK-6037,1 56461U 23064P   23172.91668981 -.00960760  00000-0 -20217-1 0  9993,2 56461  70.0006 127.4040 0003177 266.0693 304.9059 15.47681162  1300,6801.648,93.042,425.674,421.352,0.0
56461.0,STARLINK-6037,PAYLOAD,2023-06-22 06:00:00,15.46979968,0.0003215,70.0006,126.4979,271.8073,355.3509,-0.018924,-0.008723,0.0,0 STARLINK-6037,1 56461U 23064P   23173.25001157 -.00872300  00000-0 -18924-1 0  9991,2 56461  70.0006 126.4979 0003215 271.8073 355.3509 15.46979968  7038,6803.704,93.085,427.756,423.381,0.0
56461.0,STARLINK-6037,PAYLOAD,2023-06-22 20:00:01,15.45872773,0.0003324,70.0003,124.9146,264.6474,9.0177,-0.020799,-0.00930956,0.0,0 STARLINK-6037,1 56461U 23064P   23173.83334491 -.00930956  00000-0 -20799-1 0  9990,2 56461  70.0003 124.9146 0003324 264.6474   9.0177 15.45872773  7129,6806.952,93.151,431.079,426.554,0.0
56461.0,STARLINK-6037,PAYLOAD,2023-06-23 22:00:01,15.43764594,0.0003242,70.0003,121.9815,267.5998,269.0291,-0.023088,-0.00958988,0.0,0 STARLINK-6037,1 56461U 23064P   23174.91668981 -.00958988  00000-0 -23088-1 0  9993,2 56461  70.0003 121.9815 0003242 267.5998 269.0291 15.43764594  7293,6813.147,93.278,437.221,432.804,0.0
56461.0,STARLINK-6037,PAYLOAD,2023-06-24 14:00:01,15.42406112,0.0003375,69.9998,120.181,270.6704,8.2061,-0.022044,-0.0088099,0.0,0 STARLINK-6037,1 56461U 23064P   23175.58334491 -.00880990  00000-0 -22044-1 0  9991,2 56461  69.9998 120.1810 0003375 270.6704   8.2061 15.42406112  7393,6817.147,93.361,441.313,436.712,0.0
56461.0,STARLINK-6037,PAYLOAD,2023-06-25 06:00:00,15.41104497,0.0003572,69.9998,118.3841,275.321,102.7146,-0.022877,-0.00875785,0.0,0 STARLINK-6037,1 56461U 23064P   23176.25001157 -.00875785  00000-0 -22877-1 0  9996,2 56461  69.9998 118.3841 0003572 275.3210 102.7146 15.41104497  7494,6820.985,93.439,445.287,440.414,0.0
56461.0,STARLINK-6037,PAYLOAD,2023-06-25 22:00:01,15.39846106,0.0003481,69.9999,116.5904,269.1737,204.9473,-0.026174,-0.00953945,0.0,0 STARLINK-6037,1 56461U 23064P   23176.91668981 -.00953945  00000-0 -26174-1 0  9992,2 56461  69.9999 116.5904 0003481 269.1737 204.9473 15.39846106  7607,6824.701,93.516,448.942,444.19,0.0
56461.0,STARLINK-6037,PAYLOAD,2023-06-26 14:00:01,15.38490336,0.0003346,69.9996,114.8005,268.8779,298.0997,-0.024925,-0.00875244,0.0,0 STARLINK-6037,1 56461U 23064P   23177.58334491 -.00875244  00000-0 -24925-1 0  9999,2 56461  69.9996 114.8005 0003346 268.8779 298.0997 15.38490336  7704,6828.71,93.598,452.86,448.29,0.0
56461.0,STARLINK-6037,PAYLOAD,2023-06-27 06:00:00,15.37197663,0.0003462,69.9996,113.0141,274.0522,22.6938,-0.026343,-0.00885989,0.0,0 STARLINK-6037,1 56461U 23064P   23178.25001157 -.00885989  00000-0 -26343-1 0  9997,2 56461  69.9996 113.0141 0003462 274.0522  22.6938 15.37197663  7803,6832.538,93.677,456.768,452.037,0.0
56461.0,STARLINK-6037,PAYLOAD,2023-06-27 22:00:00,15.35940588,0.0003529,69.9997,111.2316,267.8812,115.4999,-0.030367,-0.00972595,0.0,0 STARLINK-6037,1 56461U 23064P   23178.91667824 -.00972595  00000-0 -30367-1 0  9990,2 56461  69.9997 111.2316 0003529 267.8812 115.4999 15.35940588  7903,6836.265,93.754,460.543,455.718,0.0
56461.0,STARLINK-6037,PAYLOAD,2023-06-28 14:00:01,15.34561707,0.0003293,69.9996,109.4524,269.3429,197.5788,-0.027342,-0.00847817,0.0,0 STARLINK-6037,1 56461U 23064P   23179.58334491 -.00847817  00000-0 -27342-1 0  9992,2 56461  69.9996 109.4524 0003293 269.3429 197.5788 15.34561707  8012,6840.36,93.838,464.477,459.972,0.0
56461.0,STARLINK-6037,PAYLOAD,2023-06-29 22:00:00,15.32016595,0.0003281,70.0003,105.9046,266.209,358.3418,-0.033854,-0.00958254,0.0,0 STARLINK-6037,1 56461U 23064P   23180.91667824 -.00958254  00000-0 -33854-1 0  9993,2 56461  70.0003 105.9046 0003281 266.2090 358.3418 15.32016595  8218,6847.933,93.994,472.045,467.552,0.0
56461.0,STARLINK-6037,PAYLOAD,2023-06-30 22:00:00,15.30056471,0.0003366,70.0007,103.2531,270.6742,103.8985,-0.035759,-0.00964879,0.0,0 STARLINK-6037,1 56461U 23064P   23181.91667824 -.00964879  00000-0 -35759-1 0  9990,2 56461  70.0007 103.2531 0003366 270.6742 103.8985 15.30056471  8362,6853.781,94.114,477.953,473.339,0.0
56461.0,STARLINK-6037,PAYLOAD,2023-07-01 12:00:00,15.28874001,0.0003212,70.0005,101.7099,269.7348,75.7783,-0.03439,-0.00888709,0.0,0 STARLINK-6037,1 56461U 23064P   23182.50001157 -.00888709  00000-0 -34390-1 0  9994,2 56461  70.0005 101.7099 0003212 269.7348  75.7783 15.28874001  8450,6857.314,94.187,481.382,476.977,0.0
56461.0,STARLINK-6037,PAYLOAD,2023-07-02 04:00:00,15.27574576,0.0003264,70.001,99.9496,277.7729,134.4319,-0.035415,-0.00880173,0.0,0 STARLINK-6037,1 56461U 23064P   23183.16667824 -.00880173  00000-0 -35415-1 0  9992,2 56461  70.0010  99.9496 0003264 277.7729 134.4319 15.27574576  8567,6861.202,94.267,485.307,480.828,0.0
56461.0,STARLINK-6037,PAYLOAD,2023-07-04 06:00:02,15.23526966,0.0003194,70.0007,94.4716,276.9939,53.5286,-0.042543,-0.00942929,0.0,0 STARLINK-6037,1 56461U 23064P   23185.25002315 -.00942929  00000-0 -42543-1 0  9990,2 56461  70.0007  94.4716 0003194 276.9939  53.5286 15.23526966  8878,6873.349,94.518,497.41,493.019,0.0
56461.0,STARLINK-6037,PAYLOAD,2023-07-05 14:00:01,15.20871836,0.0003173,70.0004,90.9838,268.2795,166.7082,-0.041582,-0.00848121,0.0,0 STARLINK-6037,1 56461U 23064P   23186.58335648 -.00848121  00000-0 -41582-1 0  9996,2 56461  70.0004  90.9838 0003173 268.2795 166.7082 15.20871836  9083,6881.347,94.683,505.395,501.028,0.0
56461.0,STARLINK-6037,PAYLOAD,2023-07-05 22:00:01,15.20247387,0.0003128,70.0004,90.114,269.9447,189.2003,-0.046147,-0.00929451,0.0,0 STARLINK-6037,1 56461U 23064P   23186.91668981 -.00929451  00000-0 -46147-1 0  9990,2 56461  70.0004  90.1140 0003128 269.9447 189.2003 15.20247387  9130,6883.231,94.721,507.249,502.943,0.0
56461.0,STARLINK-6037,PAYLOAD,2023-07-07 06:00:00,15.17661306,0.0002908,69.9995,86.6433,273.0418,274.8317,-0.051074,-0.00952407,0.0,0 STARLINK-6037,1 56461U 23064P   23188.25001157 -.00952407  00000-0 -51074-1 0  9997,2 56461  69.9995  86.6433 0002908 273.0418 274.8317 15.17661306  9338,6891.048,94.883,514.917,510.909,0.0
56461.0,STARLINK-6037,PAYLOAD,2023-07-07 22:00:00,15.16320406,0.0003062,69.9997,84.9132,269.3954,318.2066,-0.050373,-0.00907329,0.0,0 STARLINK-6037,1 56461U 23064P   23188.91667824 -.00907329  00000-0 -50373-1 0  9993,2 56461  69.9997  84.9132 0003062 269.3954 318.2066 15.16320406  9439,6895.11,94.967,519.086,514.864,0.0
56461.0,STARLINK-6037,PAYLOAD,2023-07-08 22:00:00,15.14359922,0.0003119,69.9996,82.3245,269.7028,11.5974,-0.052774,-0.00899621,0.0,0 STARLINK-6037,1 56461U 23064P   23189.91667824 -.00899621  00000-0 -52774-1 0  9996,2 56461  69.9996  82.3245 0003119 269.7028  11.5974 15.14359922  9584,6901.059,95.09,525.077,520.772,0.0
56461.0,STARLINK-6037,PAYLOAD,2023-07-09 14:00:01,15.13060351,0.0003151,69.9995,80.6031,266.2054,46.9696,-0.053588,-0.00881966,0.0,0 STARLINK-6037,1 56461U 23064P   23190.58334491 -.00881966  00000-0 -53588-1 0  9999,2 56461  69.9995  80.6031 0003151 266.2054  46.9696 15.13060351  9682,6905.01,95.171,529.051,524.7,0.0
56461.0,STARLINK-6037,PAYLOAD,2023-07-10 04:00:00,15.11937584,0.0002978,69.9994,79.0995,273.729,334.7769,-0.058037,-0.0092242,0.0,0 STARLINK-6037,1 56461U 23064P   23191.16667824 -.00922420  00000-0 -58037-1 0  9998,2 56461  69.9994  79.0995 0002978 273.7290 334.7769 15.11937584  9771,6908.428,95.242,532.351,528.236,0.0
56461.0,STARLINK-6037,PAYLOAD,2023-07-11 06:00:00,15.09838231,0.0003062,69.9995,76.3147,275.2716,103.9216,-0.064589,-0.00964932,0.0,0 STARLINK-6037,1 56461U 23064P   23192.25001157 -.00964932  00000-0 -64589-1 0  9993,2 56461  69.9995  76.3147 0003062 275.2716 103.9216 15.09838231  9944,6914.831,95.374,538.813,534.579,0.0
56461.0,STARLINK-6037,PAYLOAD,2023-07-11 22:00:00,15.08485132,0.0003146,69.9999,74.6055,274.0549,126.0924,-0.061375,-0.00889178,0.0,0 STARLINK-6037,1 56461U 23064P   23192.91667824 -.00889178  00000-0 -61375-1 0  9993,2 56461  69.9999  74.6055 0003146 274.0549 126.0924 15.08485132 10043,6918.965,95.46,543.007,538.654,0.0
56461.0,STARLINK-6037,PAYLOAD,2023-07-12 14:00:01,15.07202617,0.0003064,69.9998,72.8997,269.4575,148.5415,-0.064594,-0.0090255,0.0,0 STARLINK-6037,1 56461U 23064P   23193.58335648 -.00902550  00000-0 -64594-1 0  9999,2 56461  69.9998  72.8997 0003064 269.4575 148.5415 15.07202617 10142,6922.89,95.541,546.876,542.634,0.0
56461.0,STARLINK-6037,PAYLOAD,2023-07-13 18:00:00,15.04951195,0.0003085,70.0003,69.9225,267.9217,353.6414,-0.074277,-0.00982211,0.0,0 STARLINK-6037,1 56461U 23064P   23194.75001157 -.00982211  00000-0 -74277-1 0  9995,2 56461  70.0003  69.9225 0003085 267.9217 353.6414 15.04951195 10318,6929.792,95.684,553.795,549.52,0.0
56461.0,STARLINK-6037,PAYLOAD,2023-07-14 04:00:01,15.04123611,0.0003134,69.9998,68.8617,275.3938,82.3507,-0.073957,-0.0094726,0.0,0 STARLINK-6037,1 56461U 23064P   23195.16668981 -.00947260  00000-0 -73957-1 0  9994,2 56461  69.9998  68.8617 0003134 275.3938  82.3507 15.04123611 10389,6932.334,95.737,556.372,552.027,0.0
